CCSDS_OMM_VERS,COMMENT,CREATION_DATE,ORIGINATOR,OBJECT_NAME,OBJECT_ID,CENTER_NAME,REF_FRAME,TIME_SYSTEM,MEAN_ELEMENT_THEORY,EPOCH,MEAN_MOTION,ECCENTRICITY,INCLINATION,RA_OF_ASC_NODE,ARG_OF_PERICENTER,MEAN_ANOMALY,EPHEMERIS_TYPE,CLASSIFICATION_TYPE,NORAD_CAT_ID,ELEMENT_SET_NO,REV_AT_EPOCH,BSTAR,MEAN_MOTION_DOT,MEAN_MOTION_DDOT,SEMIMAJOR_AXIS,PERIOD,APOAPSIS,PERIAPSIS,OBJECT_TYPE,RCS_SIZE,COUNTRY_CODE,LAUNCH_DATE,SITE,DECAY_DATE,FILE,GP_ID,TLE_LINE0,TLE_LINE1,TLE_LINE2
"3.0","GENERATED VIA SPACE-TRACK.ORG API","2025-04-01T23:06:24","18 SPCS","KEPLER-19","2022-002BV","EARTH","TEME","UTC","SGP4","2025-03-30T16:45:19.161216","16.46148553","0.00152320","97.3016","165.0953","274.0257","85.9304","0","U","51051","999","17855","0.00034267000000","0.17884277","0.0000025226000","6527.634","87.477","159.442","139.557","PAYLOAD","MEDIUM","CA","2022-01-13","AFETR","2025-04-02","4687632","284608819","0 KEPLER-19","1 51051U 22002BV  25089.69813844  .17884277  25226-5  34267-3 0  9996","2 51051  97.3016 165.0953 0015232 274.0257  85.9304 16.46148553178557"
"3.0","GENERATED VIA SPACE-TRACK.ORG API","2025-03-31T02:53:27","18 SPCS","ICEYE-X32","2023-174AP","EARTH","TEME","UTC","SGP4","2025-03-30T18:12:01.012320","16.40913598","0.00134730","97.3962","177.5955","271.8948","88.0809","0","U","58293","999","7797","0.00071407000000","0.12620278","0.0000025498000","6541.510","87.756","172.189","154.562","PAYLOAD","LARGE","FIN","2023-11-11","AFWTR","2025-04-02","4685503","284464616","0 ICEYE-X32","1 58293U 23174AP  25089.75834505  .12620278  25498-5  71407-3 0  9998","2 58293  97.3962 177.5955 0013473 271.8948  88.0809 16.40913598 77970"
"3.0","GENERATED VIA SPACE-TRACK.ORG API","2025-03-31T18:51:21","18 SPCS","OBJECT XC","1998-067XC","EARTH","TEME","UTC","SGP4","2025-03-31T00:48:14.236704","16.19221691","0.00094130","51.6131","318.8850","255.6018","104.3956","0","U","62296","999","1752","0.00163570000000","0.03094512","0.0000118170000","6599.803","88.932","227.880","215.456","UNKNOWN","SMALL","JPN","1998-11-20","TTMTR","2025-04-04","4686407","284520258","0 OBJECT XC","1 62296U 98067XC  25090.03349811  .03094512  11817-4  16357-2 0  9990","2 62296  51.6131 318.8850 0009413 255.6018 104.3956 16.19221691 17522"
"3.0","GENERATED VIA SPACE-TRACK.ORG API","2025-03-31T06:36:29","18 SPCS","STARLINK-1989","2021-009AP","EARTH","TEME","UTC","SGP4","2025-03-31T02:13:06.583584","16.31505458","0.00011120","53.0237","70.5461","251.5879","150.6896","0","U","47585","999","23036","0.00136780000000","0.07391639","0.0000121230000","6566.634","88.262","189.229","187.769","PAYLOAD","LARGE","US","2021-02-04","AFETR","2025-03-31","4685581","284472007","0 STARLINK-1989","1 47585U 21009AP  25090.09243731  .07391639  12123-4  13678-2 0  9994","2 47585  53.0237  70.5461 0001112 251.5879 150.6896 16.31505458230363"
"3.0","GENERATED VIA SPACE-TRACK.ORG API","2025-03-31T18:51:21","18 SPCS","DMSP 5D-2 F14 DEB","1997-012F","EARTH","TEME","UTC","SGP4","2025-03-31T03:18:07.725888","15.64760549","0.00253880","98.8900","145.6424","274.9105","84.9251","0","U","62935","999","1475","0.19860000000000","0.24319656","0.0000000000000","6752.065","92.027","391.072","356.787","DEBRIS","MEDIUM","US","1997-04-04","AFWTR","2025-04-04","4686407","284520547","0 DMSP 5D-2 F14 DEB","1 62935U 97012F   25090.13758942  .24319656  00000-0  19860+0 0  9998","2 62935  98.8900 145.6424 0025388 274.9105  84.9251 15.64760549 14754"
"3.0","GENERATED VIA SPACE-TRACK.ORG API","2025-03-31T10:36:25","18 SPCS","STARLINK-31155","2024-005A","EARTH","TEME","UTC","SGP4","2025-03-31T09:49:41.304576","16.21029081","0.00109410","42.9870","250.9910","323.4490","128.5854","0","U","58728","999","6920","0.00117120000000","0.02605097","0.0000089416000","6594.896","88.832","223.977","209.546","PAYLOAD","LARGE","US","2024-01-07","AFETR","2025-03-31","4685858","284478346","0 STARLINK-31155","1 58728U 24005A   25090.40950584  .02605097  89416-5  11712-2 0  9998","2 58728  42.9870 250.9910 0010941 323.4490 128.5854 16.21029081 69208"
"3.0","GENERATED VIA SPACE-TRACK.ORG API","2025-03-31T17:06:18","18 SPCS","STARLINK-1867","2020-088AH","EARTH","TEME","UTC","SGP4","2025-03-31T15:51:33.788736","16.45683032","0.00110910","53.0161","353.7978","214.7661","232.6188","0","U","47153","999","24105","0.00037506000000","0.16939850","0.0000123670000","6528.865","87.502","157.972","143.489","PAYLOAD","LARGE","US","2020-11-25","AFETR","2025-04-01","4686238","284487241","0 STARLINK-1867","1 47153U 20088AH  25090.66080774  .16939850  12367-4  37506-3 0  9990","2 47153  53.0161 353.7978 0011091 214.7661 232.6188 16.45683032241059"
"3.0","GENERATED VIA SPACE-TRACK.ORG API","2025-04-01T00:06:24","18 SPCS","M2-A","2021-023C","EARTH","TEME","UTC","SGP4","2025-03-31T23:43:21.152064","16.26595675","0.00045840","44.9707","114.4192","54.2067","28.9373","0","U","47967","999","22336","0.00151280000000","0.05289429","0.0000102670000","6579.842","88.528","204.723","198.690","PAYLOAD","MEDIUM","AUS","2021-03-22","RLLC","2025-04-04","4686594","284525403","0 M2-A","1 47967U 21023C   25090.98843926  .05289429  10267-4  15128-2 0  9994","2 47967  44.9707 114.4192 0004584  54.2067  28.9373 16.26595675223363"
"3.0","GENERATED VIA SPACE-TRACK.ORG API","2025-04-04T20:19:44","18 SPCS","GLOBAL-20","2022-034C","EARTH","TEME","UTC","SGP4","2025-04-01T00:11:26.100672","16.48521086","0.00036310","52.9584","129.2319","319.6989","40.3790","0","U","52197","999","16966","0.00018839000000","0.12635461","0.0000126510000","6521.370","87.351","145.603","140.867","PAYLOAD","MEDIUM","US","2022-04-02","RLLC","2025-04-04","4690529","284845409","0 GLOBAL-20","1 52197U 22034C   25091.00794098  .12635461  12651-4  18839-3 0  9998","2 52197  52.9584 129.2319 0003631 319.6989  40.3790 16.48521086169666"
"3.0","GENERATED VIA SPACE-TRACK.ORG API","2025-04-01T17:48:34","18 SPCS","CZ-6A DEB","2024-140BS","EARTH","TEME","UTC","SGP4","2025-04-01T03:38:50.135424","16.09172841","0.00316800","88.4660","307.2715","238.8211","120.9975","0","U","60665","999","3568","0.00479870000000","0.03402855","0.0245780000000","6627.250","89.487","270.111","228.120","DEBRIS","MEDIUM","PRC","2024-08-06","TSC","2025-04-04","4687331","284599616","0 CZ-6A DEB","1 60665U 24140BS  25091.15196916  .03402855  24578-1  47987-2 0  9990","2 60665  88.4660 307.2715 0031680 238.8211 120.9975 16.09172841 35689"
"3.0","GENERATED VIA SPACE-TRACK.ORG API","2025-04-01T06:06:30","18 SPCS","STARLINK-1580","2020-055Q","EARTH","TEME","UTC","SGP4","2025-04-01T05:15:14.497920","16.21384319","0.00148420","53.0289","183.7036","344.6101","103.0829","0","U","46041","999","25732","0.00122830000000","0.02787056","0.0000118910000","6593.933","88.813","225.585","206.011","PAYLOAD","LARGE","US","2020-08-07","AFETR","2025-04-01","4686618","284555231","0 STARLINK-1580","1 46041U 20055Q   25091.21891780  .02787056  11891-4  12283-2 0  9997","2 46041  53.0289 183.7036 0014842 344.6101 103.0829 16.21384319257320"
"3.0","GENERATED VIA SPACE-TRACK.ORG API","2025-04-01T07:06:38","18 SPCS","STARLINK-1189","2020-012AV","EARTH","TEME","UTC","SGP4","2025-04-01T05:48:03.102048","16.26109859","0.00027500","53.0398","50.5722","74.2339","67.0295","0","U","45221","999","28358","0.00486870000000","0.15995317","0.0000119940000","6581.152","88.555","204.827","201.207","PAYLOAD","LARGE","US","2020-02-17","AFETR","2025-04-01","4686915","284561538","0 STARLINK-1189","1 45221U 20012AV  25091.24170257  .15995317  11994-4  48687-2 0  9997","2 45221  53.0398  50.5722 0002750  74.2339  67.0295 16.26109859283589"
"3.0","GENERATED VIA SPACE-TRACK.ORG API","2025-04-03T03:59:49","18 SPCS","OBJECT BP","2023-174BP","EARTH","TEME","UTC","SGP4","2025-04-01T14:54:19.927872","16.31943736","0.00132700","97.3838","180.0067","269.4347","90.5427","0","U","58317","999","7830","0.00145900000000","0.07821529","0.0000024928000","6565.458","88.238","196.036","178.611","UNKNOWN","SMALL","TBD","2023-11-11","AFWTR","2025-04-04","4688710","284718721","0 OBJECT BP","1 58317U 23174BP  25091.62106398  .07821529  24928-5  14590-2 0  9998","2 58317  97.3838 180.0067 0013270 269.4347  90.5427 16.31943736 78302"
"3.0","GENERATED VIA SPACE-TRACK.ORG API","2025-07-27T03:23:05","18 SPCS","TBA - TO BE ASSIGNED","UNKNOWN","EARTH","TEME","UTC","SGP4","2025-04-01T15:18:57.733344","12.41610258","0.07455229","83.1510","68.0207","195.8850","161.7657","0","U","270112","999","24192","0.00326299720000","0.00001194","0.0000000000000","7877.921","115.978","2087.104","912.469","UNKNOWN","","","","","","4796941","293541353","0 TBA - TO BE ASSIGNED","1 T0112U          25091.63816821  .00001194  00000-0  32630-2 0  9997","2 T0112  83.1510  68.0207 0745523 195.8850 161.7657 12.41610258241920"
"3.0","GENERATED VIA SPACE-TRACK.ORG API","2025-04-03T03:59:49","18 SPCS","LEMUR 2 NATALIEMURRAY","2018-111M","EARTH","TEME","UTC","SGP4","2025-04-01T19:39:14.799456","16.38996519","0.00086710","97.5592","22.9286","203.5320","156.5583","0","U","43887","999","34423","0.00122810000000","0.13621562","0.0000027586000","6546.610","87.859","174.152","162.799","PAYLOAD","SMALL","US","2018-12-27","VOSTO","2025-04-04","4688710","284710449","0 LEMUR 2 NATALIEMURRAY","1 43887U 18111M   25091.81892129  .13621562  27586-5  12281-2 0  9994","2 43887  97.5592  22.9286 0008671 203.5320 156.5583 16.38996519344231"
"3.0","GENERATED VIA SPACE-TRACK.ORG API","2025-04-02T17:11:55","18 SPCS","CZ-6A DEB","2022-151AAH","EARTH","TEME","UTC","SGP4","2025-04-02T02:34:57.380448","15.56062658","0.00158720","98.5867","144.1619","203.8363","156.2155","0","U","55885","999","4794","0.02661500000000","0.02086384","0.0000000000000","6777.202","92.541","409.824","388.311","DEBRIS","SMALL","PRC","2022-11-11","TSC","2025-04-10","4688355","284679295","0 CZ-6A DEB","1 55885U 22151AAH 25092.10760857  .02086384  00000-0  26615-1 0  9996","2 55885  98.5867 144.1619 0015872 203.8363 156.2155 15.56062658 47943"
